{"type": "FeatureCollection", "features": [ {"type": "Feature", "properties": {"norad_id": 36366, "name": "COSMOS 2251 DEB", "group": "cosmos-2251-debris", "lat": 16.846536224772347, "lon": 70.00613361872789, "alt_km": 811.0492685998306, "timestamp": "2025-12-22T15:43:49.406750+00:00", "meta": {"OBJECT_NAME": "COSMOS 2251 DEB", "OBJECT_ID": "1993-036AYT", "EPOCH": "2025-12-21T17:11:32.767008", "MEAN_MOTION": 14.33460542, "ECCENTRICITY": 0.00902396, "INCLINATION": 74.0657, "RA_OF_ASC_NODE": 256.6822, "ARG_OF_PERICENTER": 283.124, "MEAN_ANOMALY": 75.9853, "EPHEMERIS_TYPE": 0, "CLASSIFICATION_TYPE": "U", "NORAD_CAT_ID": 36366, "ELEMENT_SET_NO": 999, "REV_AT_EPOCH": 86417, "BSTAR": 0.0010533139, "MEAN_MOTION_DOT": 3.019e-05, "MEAN_MOTION_DDOT": 0}, "tle": {"line1": "1 36366U 93036AYT 25355.71635147  .00003019  00000+0  10533-2 0  9995", "line2": "2 36366  74.0657 256.6822 0090239 283.1240  75.9853 14.33460542864174"}}, "geometry": {"type": "Point", "coordinates": [70.00613361872789, 16.846536224772347]}}, {"type": "Feature", "properties": {"norad_id": 36367, "name": "COSMOS 2251 DEB", "group": "cosmos-2251-debris", "lat": -35.78018453211517, "lon": -157.15781140200664, "alt_km": 792.9457377195267, "timestamp": "2025-12-22T15:43:49.406760+00:00", "meta": {"OBJECT_NAME": "COSMOS 2251 DEB", "OBJECT_ID": "1993-036AYU", "EPOCH": "2025-12-20T08:29:16.285344", "MEAN_MOTION": 13.86366524, "ECCENTRICITY": 0.02619085, "INCLINATION": 74.1004, "RA_OF_ASC_NODE": 218.5774, "ARG_OF_PERICENTER": 289.7911, "MEAN_ANOMALY": 67.515, "EPHEMERIS_TYPE": 0, "CLASSIFICATION_TYPE": "U", "NORAD_CAT_ID": 36367, "ELEMENT_SET_NO": 999, "REV_AT_EPOCH": 57635, "BSTAR": 0.0011101793, "MEAN_MOTION_DOT": 1.658e-05, "MEAN_MOTION_DDOT": 0}, "tle": {"line1": "1 36367U 93036AYU 25354.35366071  .00001658  00000+0  11102-2 0  9992", "line2": "2 36367  74.1004 218.5774 0261908 289.7911  67.5150 13.86366524576354"}}, "geometry": {"type": "Point", "coordinates": [-157.15781140200664, -35.78018453211517]}}, {"type": "Feature", "properties": {"norad_id": 36369, "name": "COSMOS 2251 DEB", "group": "cosmos-2251-debris", "lat": -5.666754803992965, "lon": 49.76030548081092, "alt_km": 657.5334440078159, "timestamp": "2025-12-22T15:43:49.406771+00:00", "meta": {"OBJECT_NAME": "COSMOS 2251 DEB", "OBJECT_ID": "1993-036AYW", "EPOCH": "2025-12-21T10:25:50.498400", "MEAN_MOTION": 14.73682344, "ECCENTRICITY": 0.0010476, "INCLINATION": 74.0314, "RA_OF_ASC_NODE": 53.7689, "ARG_OF_PERICENTER": 128.4088, "MEAN_ANOMALY": 231.8027, "EPHEMERIS_TYPE": 0, "CLASSIFICATION_TYPE": "U", "NORAD_CAT_ID": 36369, "ELEMENT_SET_NO": 999, "REV_AT_EPOCH": 86050, "BSTAR": 0.00084133, "MEAN_MOTION_DOT": 5.466e-05, "MEAN_MOTION_DDOT": 0}, "tle": {"line1": "1 36369U 93036AYW 25355.43461225  .00005466  00000+0  84133-3 0  9997", "line2": "2 36369  74.0314  53.7689 0010476 128.4088 231.8027 14.73682344860509"}}, "geometry": {"type": "Point", "coordinates": [49.76030548081092, -5.666754803992965]}}, {"type": "Feature", "properties": {"norad_id": 36371, "name": "COSMOS 2251 DEB", "group": "cosmos-2251-debris", "lat": 19.443615891305516, "lon": -43.54767178616134, "alt_km": 652.4926519235187, "timestamp": "2025-12-22T15:43:49.406780+00:00", "meta": {"OBJECT_NAME": "COSMOS 2251 DEB", "OBJECT_ID": "1993-036AYY", "EPOCH": "2025-12-22T03:34:47.193312", "MEAN_MOTION": 14.70793621, "ECCENTRICITY": 0.0008891, "INCLINATION": 74.0127, "RA_OF_ASC_NODE": 143.2448, "ARG_OF_PERICENTER": 182.3975, "MEAN_ANOMALY": 177.7155, "EPHEMERIS_TYPE": 0, "CLASSIFICATION_TYPE": "U", "NORAD_CAT_ID": 36371, "ELEMENT_SET_NO": 999, "REV_AT_EPOCH": 71583, "BSTAR": 0.002149597, "MEAN_MOTION_DOT": 0.00013129, "MEAN_MOTION_DDOT": 0}, "tle": {"line1": "1 36371U 93036AYY 25356.14915733  .00013129  00000+0  21496-2 0  9994", "line2": "2 36371  74.0127 143.2448 0008891 182.3975 177.7155 14.70793621715837"}}, "geometry": {"type": "Point", "coordinates": [-43.54767178616134, 19.443615891305516]}}, {"type": "Feature", "properties": {"norad_id": 36379, "name": "COSMOS 2251 DEB", "group": "cosmos-2251-debris", "lat": 11.340057144027556, "lon": 105.29561123271344, "alt_km": 785.0319823294913, "timestamp": "2025-12-22T15:43:49.406790+00:00", "meta": {"OBJECT_NAME": "COSMOS 2251 DEB", "OBJECT_ID": "1993-036AZG", "EPOCH": "2025-12-21T02:14:38.502816", "MEAN_MOTION": 14.36091919, "ECCENTRICITY": 0.00448164, "INCLINATION": 74.0129, "RA_OF_ASC_NODE": 291.4624, "ARG_OF_PERICENTER": 57.9805, "MEAN_ANOMALY": 317.791, "EPHEMERIS_TYPE": 0, "CLASSIFICATION_TYPE": "U", "NORAD_CAT_ID": 36379, "ELEMENT_SET_NO": 999, "REV_AT_EPOCH": 64948, "BSTAR": 0.00021634378, "MEAN_MOTION_DOT": 6.11e-06, "MEAN_MOTION_DDOT": 0}, "tle": {"line1": "1 36379U 93036AZG 25355.09350119  .00000611  00000+0  21634-3 0  9993", "line2": "2 36379  74.0129 291.4624 0044816  57.9805 317.7910 14.36091919649480"}}, "geometry": {"type": "Point", "coordinates": [105.29561123271344, 11.340057144027556]}}, {"type": "Feature", "properties": {"norad_id": 36385, "name": "COSMOS 2251 DEB", "group": "cosmos-2251-debris", "lat": -15.655466720046029, "lon": 130.5273127564094, "alt_km": 576.3665182978975, "timestamp": "2025-12-22T15:43:49.406800+00:00", "meta": {"OBJECT_NAME": "COSMOS 2251 DEB", "OBJECT_ID": "1993-036AZN", "EPOCH": "2025-12-20T19:47:03.334560", "MEAN_MOTION": 14.72696016, "ECCENTRICITY": 0.01415357, "INCLINATION": 73.9698, "RA_OF_ASC_NODE": 138.7285, "ARG_OF_PERICENTER": 311.3318, "MEAN_ANOMALY": 47.5743, "EPHEMERIS_TYPE": 0, "CLASSIFICATION_TYPE": "U", "NORAD_CAT_ID": 36385, "ELEMENT_SET_NO": 999, "REV_AT_EPOCH": 85221, "BSTAR": 0.0008039038, "MEAN_MOTION_DOT": 5.978e-05, "MEAN_MOTION_DDOT": 0}, "tle": {"line1": "1 36385U 93036AZN 25354.82434415  .00005978  00000+0  80390-3 0  9997", "line2": "2 36385  73.9698 138.7285 0141535 311.3318  47.5743 14.72696016852212"}}, "geometry": {"type": "Point", "coordinates": [130.5273127564094, -15.655466720046029]}}, {"type": "Feature", "properties": {"norad_id": 36420, "name": "COSMOS 2251 DEB", "group": "cosmos-2251-debris", "lat": 69.03900882691858, "lon": -54.40248304523295, "alt_km": 762.4240480888911, "timestamp": "2025-12-22T15:43:49.406811+00:00", "meta": {"OBJECT_NAME": "COSMOS 2251 DEB", "OBJECT_ID": "1993-036AZT", "EPOCH": "2025-12-21T02:55:38.256384", "MEAN_MOTION": 14.36907864, "ECCENTRICITY": 0.00184562, "INCLINATION": 74.0376, "RA_OF_ASC_NODE": 260.0713, "ARG_OF_PERICENTER": 346.0954, "MEAN_ANOMALY": 80.7548, "EPHEMERIS_TYPE": 0, "CLASSIFICATION_TYPE": "U", "NORAD_CAT_ID": 36420, "ELEMENT_SET_NO": 999, "REV_AT_EPOCH": 85157, "BSTAR": 0.00010545411, "MEAN_MOTION_DOT": 2.86e-06, "MEAN_MOTION_DDOT": 0}, "tle": {"line1": "1 36420U 93036AZT 25355.12197056  .00000286  00000+0  10545-3 0  9990", "line2": "2 36420  74.0376 260.0713 0018456 346.0954  80.7548 14.36907864851574"}}, "geometry": {"type": "Point", "coordinates": [-54.40248304523295, 69.03900882691858]}}, {"type": "Feature", "properties": {"norad_id": 36430, "name": "COSMOS 2251 DEB", "group": "cosmos-2251-debris", "lat": 46.309753538303745, "lon": -106.9396640322921, "alt_km": 814.7468154991248, "timestamp": "2025-12-22T15:43:49.406822+00:00", "meta": {"OBJECT_NAME": "COSMOS 2251 DEB", "OBJECT_ID": "1993-036BAD", "EPOCH": "2025-12-17T14:02:08.838528", "MEAN_MOTION": 14.27804633, "ECCENTRICITY": 0.00972961, "INCLINATION": 74.0048, "RA_OF_ASC_NODE": 99.7344, "ARG_OF_PERICENTER": 248.7934, "MEAN_ANOMALY": 110.2799, "EPHEMERIS_TYPE": 0, "CLASSIFICATION_TYPE": "U", "NORAD_CAT_ID": 36430, "ELEMENT_SET_NO": 999, "REV_AT_EPOCH": 64626, "BSTAR": 0.00041842357, "MEAN_MOTION_DOT": 1.061e-05, "MEAN_MOTION_DDOT": 0}, "tle": {"line1": "1 36430U 93036BAD 25351.58482452  .00001061  00000+0  41842-3 0  9990", "line2": "2 36430  74.0048  99.7344 0097296 248.7934 110.2799 14.27804633646268"}}, "geometry": {"type": "Point", "coordinates": [-106.9396640322921, 46.309753538303745]}}, {"type": "Feature", "properties": {"norad_id": 36437, "name": "COSMOS 2251 DEB", "group": "cosmos-2251-debris", "lat": -47.603582972385865, "lon": -146.96984776662848, "alt_km": 649.171203205321, "timestamp": "2025-12-22T15:43:49.406832+00:00", "meta": {"OBJECT_NAME": "COSMOS 2251 DEB", "OBJECT_ID": "1993-036BAL", "EPOCH": "2025-12-20T18:36:38.364192", "MEAN_MOTION": 14.70810572, "ECCENTRICITY": 0.00231641, "INCLINATION": 73.942, "RA_OF_ASC_NODE": 18.3096, "ARG_OF_PERICENTER": 249.5495, "MEAN_ANOMALY": 110.3188, "EPHEMERIS_TYPE": 0, "CLASSIFICATION_TYPE": "U", "NORAD_CAT_ID": 36437, "ELEMENT_SET_NO": 999, "REV_AT_EPOCH": 66169, "BSTAR": 0.00075908188, "MEAN_MOTION_DOT": 4.626e-05, "MEAN_MOTION_DDOT": 0}, "tle": {"line1": "1 36437U 93036BAL 25354.77544403  .00004626  00000+0  75908-3 0  9996", "line2": "2 36437  73.9420  18.3096 0023164 249.5495 110.3188 14.70810572661696"}}, "geometry": {"type": "Point", "coordinates": [-146.96984776662848, -47.603582972385865]}}, {"type": "Feature", "properties": {"norad_id": 36439, "name": "COSMOS 2251 DEB", "group": "cosmos-2251-debris", "lat": 72.36723499254167, "lon": 136.1313509901702, "alt_km": 1151.5759010452812, "timestamp": "2025-12-22T15:43:49.406842+00:00", "meta": {"OBJECT_NAME": "COSMOS 2251 DEB", "OBJECT_ID": "1993-036BAN", "EPOCH": "2025-12-16T11:25:24.463776", "MEAN_MOTION": 13.47804354, "ECCENTRICITY": 0.04280619, "INCLINATION": 73.9685, "RA_OF_ASC_NODE": 30.7531, "ARG_OF_PERICENTER": 1.8523, "MEAN_ANOMALY": 358.4044, "EPHEMERIS_TYPE": 0, "CLASSIFICATION_TYPE": "U", "NORAD_CAT_ID": 36439, "ELEMENT_SET_NO": 999, "REV_AT_EPOCH": 58663, "BSTAR": 0.0011092098, "MEAN_MOTION_DOT": 1.175e-05, "MEAN_MOTION_DDOT": 0}, "tle": {"line1": "1 36439U 93036BAN 25350.47597759  .00001175  00000+0  11092-2 0  9992", "line2": "2 36439  73.9685  30.7531 0428061   1.8523 358.4044 13.47804354586639"}}, "geometry": {"type": "Point", "coordinates": [136.1313509901702, 72.36723499254167]}}]}